[{"CCSDS_OMM_VERS":"2.0","COMMENT":"GENERATED VIA SPACE-TRACK.ORG API","CREATION_DATE":"2020-12-01T22:26:10","ORIGINATOR":"18 SPCS","OBJECT_NAME":"STARLINK-1524","OBJECT_ID":"2020-055W","CENTER_NAME":"EARTH","REF_FRAME":"TEME","TIME_SYSTEM":"UTC","MEAN_ELEMENT_THEORY":"SGP4","EPOCH":"2020-12-01T19:25:29.786592","MEAN_MOTION":"15.06683742","ECCENTRICITY":"0.00044180","INCLINATION":"53.0216","RA_OF_ASC_NODE":"113.2163","ARG_OF_PERICENTER":"23.0829","MEAN_ANOMALY":"337.0357","EPHEMERIS_TYPE":"0","CLASSIFICATION_TYPE":"U","NORAD_CAT_ID":"46047","ELEMENT_SET_NO":"999","REV_AT_EPOCH":"1854","BSTAR":"0.00134610000000","MEAN_MOTION_DOT":"0.00019983","MEAN_MOTION_DDOT":"0.0000000000000","SEMIMAJOR_AXIS":"6924.479","PERIOD":"95.574","APOAPSIS":"549.403","PERIAPSIS":"543.284","OBJECT_TYPE":"PAYLOAD","RCS_SIZE":"LARGE","COUNTRY_CODE":"US","LAUNCH_DATE":"2020-08-07","SITE":"AFETR","DECAY_DATE":null,"FILE":"2895735","GP_ID":"166708463","TLE_LINE0":"0 STARLINK-1524","TLE_LINE1":"1 46047U 20055W   20336.80937253  .00019983  00000-0  13461-2 0  9991","TLE_LINE2":"2 46047  53.0216 113.2163 0004418  23.0829 337.0357 15.06683742 18546"},{"CCSDS_OMM_VERS":"2.0","COMMENT":"GENERATED VIA SPACE-TRACK.ORG API","CREATION_DATE":"2020-12-02T04:55:40","ORIGINATOR":"18 SPCS","OBJECT_NAME":"STARLINK-1525","OBJECT_ID":"2020-055AR","CENTER_NAME":"EARTH","REF_FRAME":"TEME","TIME_SYSTEM":"UTC","MEAN_ELEMENT_THEORY":"SGP4","EPOCH":"2020-12-01T19:29:48.952896","MEAN_MOTION":"15.05585116","ECCENTRICITY":"0.00013060","INCLINATION":"53.0031","RA_OF_ASC_NODE":"93.2284","ARG_OF_PERICENTER":"92.8338","MEAN_ANOMALY":"267.2800","EPHEMERIS_TYPE":"0","CLASSIFICATION_TYPE":"U","NORAD_CAT_ID":"46066","ELEMENT_SET_NO":"999","REV_AT_EPOCH":"1933","BSTAR":"-0.00001538200000","MEAN_MOTION_DOT":"-0.00000503","MEAN_MOTION_DDOT":"0.0000000000000","SEMIMAJOR_AXIS":"6927.847","PERIOD":"95.643","APOAPSIS":"550.616","PERIAPSIS":"548.807","OBJECT_TYPE":"PAYLOAD","RCS_SIZE":"LARGE","COUNTRY_CODE":"US","LAUNCH_DATE":"2020-08-07","SITE":"AFETR","DECAY_DATE":null,"FILE":"2895815","GP_ID":"166730475","TLE_LINE0":"0 STARLINK-1525","TLE_LINE1":"1 46066U 20055AR  20336.81237214 -.00000503  00000-0 -15382-4 0  9999","TLE_LINE2":"2 46066  53.0031  93.2284 0001306  92.8338 267.2800 15.05585116 19335"},{"CCSDS_OMM_VERS":"2.0","COMMENT":"GENERATED VIA SPACE-TRACK.ORG API","CREATION_DATE":"2020-12-01T22:36:10","ORIGINATOR":"18 SPCS","OBJECT_NAME":"STARLINK-1558","OBJECT_ID":"2020-055J","CENTER_NAME":"EARTH","REF_FRAME":"TEME","TIME_SYSTEM":"UTC","MEAN_ELEMENT_THEORY":"SGP4","EPOCH":"2020-12-01T19:33:03.561984","MEAN_MOTION":"15.05583997","ECCENTRICITY":"0.00016220","INCLINATION":"53.0014","RA_OF_ASC_NODE":"123.2270","ARG_OF_PERICENTER":"77.1967","MEAN_ANOMALY":"282.9202","EPHEMERIS_TYPE":"0","CLASSIFICATION_TYPE":"U","NORAD_CAT_ID":"46035","ELEMENT_SET_NO":"999","REV_AT_EPOCH":"1840","BSTAR":"-0.00000813360000","MEAN_MOTION_DOT":"-0.00000398","MEAN_MOTION_DDOT":"0.0000000000000","SEMIMAJOR_AXIS":"6927.850","PERIOD":"95.643","APOAPSIS":"550.839","PERIAPSIS":"548.591","OBJECT_TYPE":"PAYLOAD","RCS_SIZE":"LARGE","COUNTRY_CODE":"US","LAUNCH_DATE":"2020-08-07","SITE":"AFETR","DECAY_DATE":null,"FILE":"2895742","GP_ID":"166708594","TLE_LINE0":"0 STARLINK-1558","TLE_LINE1":"1 46035U 20055J   20336.81462456 -.00000398  00000-0 -81336-5 0  9998","TLE_LINE2":"2 46035  53.0014 123.2270 0001622  77.1967 282.9202 15.05583997 18408"},{"CCSDS_OMM_VERS":"2.0","COMMENT":"GENERATED VIA SPACE-TRACK.ORG API","CREATION_DATE":"2020-12-02T04:55:40","ORIGINATOR":"18 SPCS","OBJECT_NAME":"STARLINK-1529","OBJECT_ID":"2020-055AS","CENTER_NAME":"EARTH","REF_FRAME":"TEME","TIME_SYSTEM":"UTC","MEAN_ELEMENT_THEORY":"SGP4","EPOCH":"2020-12-01T19:34:36.035904","MEAN_MOTION":"15.05582922","ECCENTRICITY":"0.00013210","INCLINATION":"52.9884","RA_OF_ASC_NODE":"93.2937","ARG_OF_PERICENTER":"71.2517","MEAN_ANOMALY":"288.8615","EPHEMERIS_TYPE":"0","CLASSIFICATION_TYPE":"U","NORAD_CAT_ID":"46067","ELEMENT_SET_NO":"999","REV_AT_EPOCH":"1934","BSTAR":"-0.00005369900000","MEAN_MOTION_DOT":"-0.00001062","MEAN_MOTION_DDOT":"0.0000000000000","SEMIMAJOR_AXIS":"6927.853","PERIOD":"95.644","APOAPSIS":"550.634","PERIAPSIS":"548.803","OBJECT_TYPE":"PAYLOAD","RCS_SIZE":"LARGE","COUNTRY_CODE":"US","LAUNCH_DATE":"2020-08-07","SITE":"AFETR","DECAY_DATE":null,"FILE":"2895815","GP_ID":"166730721","TLE_LINE0":"0 STARLINK-1529","TLE_LINE1":"1 46067U 20055AS  20336.81569486 -.00001062  00000-0 -53699-4 0  9993","TLE_LINE2":"2 46067  52.9884  93.2937 0001321  71.2517 288.8615 15.05582922 19348"},{"CCSDS_OMM_VERS":"2.0","COMMENT":"GENERATED VIA SPACE-TRACK.ORG API","CREATION_DATE":"2020-12-02T04:55:40","ORIGINATOR":"18 SPCS","OBJECT_NAME":"STARLINK-1571","OBJECT_ID":"2020-055BG","CENTER_NAME":"EARTH","REF_FRAME":"TEME","TIME_SYSTEM":"UTC","MEAN_ELEMENT_THEORY":"SGP4","EPOCH":"2020-12-01T19:39:22.451040","MEAN_MOTION":"15.05586947","ECCENTRICITY":"0.00014250","INCLINATION":"53.0025","RA_OF_ASC_NODE":"93.2053","ARG_OF_PERICENTER":"100.5865","MEAN_ANOMALY":"259.5284","EPHEMERIS_TYPE":"0","CLASSIFICATION_TYPE":"U","NORAD_CAT_ID":"46081","ELEMENT_SET_NO":"999","REV_AT_EPOCH":"1933","BSTAR":"-0.00003127400000","MEAN_MOTION_DOT":"-0.00000735","MEAN_MOTION_DDOT":"0.0000000000000","SEMIMAJOR_AXIS":"6927.841","PERIOD":"95.643","APOAPSIS":"550.693","PERIAPSIS":"548.719","OBJECT_TYPE":"PAYLOAD","RCS_SIZE":"LARGE","COUNTRY_CODE":"US","LAUNCH_DATE":"2020-08-07","SITE":"AFETR","DECAY_DATE":null,"FILE":"2895815","GP_ID":"166729244","TLE_LINE0":"0 STARLINK-1571","TLE_LINE1":"1 46081U 20055BG  20336.81900985 -.00000735  00000-0 -31274-4 0  9993","TLE_LINE2":"2 46081  53.0025  93.2053 0001425 100.5865 259.5284 15.05586947 19336"},{"CCSDS_OMM_VERS":"2.0","COMMENT":"GENERATED VIA SPACE-TRACK.ORG API","CREATION_DATE":"2020-12-02T04:55:40","ORIGINATOR":"18 SPCS","OBJECT_NAME":"STARLINK-1579","OBJECT_ID":"2020-055BJ","CENTER_NAME":"EARTH","REF_FRAME":"TEME","TIME_SYSTEM":"UTC","MEAN_ELEMENT_THEORY":"SGP4","EPOCH":"2020-12-01T19:48:56.392416","MEAN_MOTION":"15.05584620","ECCENTRICITY":"0.00013730","INCLINATION":"52.9963","RA_OF_ASC_NODE":"93.2013","ARG_OF_PERICENTER":"80.0703","MEAN_ANOMALY":"280.0440","EPHEMERIS_TYPE":"0","CLASSIFICATION_TYPE":"U","NORAD_CAT_ID":"46083","ELEMENT_SET_NO":"999","REV_AT_EPOCH":"1933","BSTAR":"-0.00004222400000","MEAN_MOTION_DOT":"-0.00000895","MEAN_MOTION_DDOT":"0.0000000000000","SEMIMAJOR_AXIS":"6927.848","PERIOD":"95.643","APOAPSIS":"550.664","PERIAPSIS":"548.762","OBJECT_TYPE":"PAYLOAD","RCS_SIZE":"LARGE","COUNTRY_CODE":"US","LAUNCH_DATE":"2020-08-07","SITE":"AFETR","DECAY_DATE":null,"FILE":"2895815","GP_ID":"166730723","TLE_LINE0":"0 STARLINK-1579","TLE_LINE1":"1 46083U 20055BJ  20336.82565269 -.00000895  00000-0 -42224-4 0  9992","TLE_LINE2":"2 46083  52.9963  93.2013 0001373  80.0703 280.0440 15.05584620 19337"},{"CCSDS_OMM_VERS":"2.0","COMMENT":"GENERATED VIA SPACE-TRACK.ORG API","CREATION_DATE":"2020-12-02T04:55:40","ORIGINATOR":"18 SPCS","OBJECT_NAME":"STARLINK-1522","OBJECT_ID":"2020-055A","CENTER_NAME":"EARTH","REF_FRAME":"TEME","TIME_SYSTEM":"UTC","MEAN_ELEMENT_THEORY":"SGP4","EPOCH":"2020-12-01T19:52:10.616160","MEAN_MOTION":"15.05589609","ECCENTRICITY":"0.00021790","INCLINATION":"53.0013","RA_OF_ASC_NODE":"123.1745","ARG_OF_PERICENTER":"97.4915","MEAN_ANOMALY":"262.6320","EPHEMERIS_TYPE":"0","CLASSIFICATION_TYPE":"U","NORAD_CAT_ID":"46027","ELEMENT_SET_NO":"999","REV_AT_EPOCH":"1891","BSTAR":"0.00010336000000","MEAN_MOTION_DOT":"0.00001227","MEAN_MOTION_DDOT":"0.0000000000000","SEMIMAJOR_AXIS":"6927.833","PERIOD":"95.643","APOAPSIS":"551.207","PERIAPSIS":"548.188","OBJECT_TYPE":"PAYLOAD","RCS_SIZE":"LARGE","COUNTRY_CODE":"US","LAUNCH_DATE":"2020-08-07","SITE":"AFETR","DECAY_DATE":null,"FILE":"2895815","GP_ID":"166730716","TLE_LINE0":"0 STARLINK-1522","TLE_LINE1":"1 46027U 20055A   20336.82790065  .00001227  00000-0  10336-3 0  9990","TLE_LINE2":"2 46027  53.0013 123.1745 0002179  97.4915 262.6320 15.05589609 18918"},{"CCSDS_OMM_VERS":"2.0","COMMENT":"GENERATED VIA SPACE-TRACK.ORG API","CREATION_DATE":"2020-12-02T04:55:40","ORIGINATOR":"18 SPCS","OBJECT_NAME":"STARLINK-1532","OBJECT_ID":"2020-055AT","CENTER_NAME":"EARTH","REF_FRAME":"TEME","TIME_SYSTEM":"UTC","MEAN_ELEMENT_THEORY":"SGP4","EPOCH":"2020-12-01T19:53:43.291392","MEAN_MOTION":"15.05579224","ECCENTRICITY":"0.00015500","INCLINATION":"52.9928","RA_OF_ASC_NODE":"93.2049","ARG_OF_PERICENTER":"71.9016","MEAN_ANOMALY":"288.2141","EPHEMERIS_TYPE":"0","CLASSIFICATION_TYPE":"U","NORAD_CAT_ID":"46068","ELEMENT_SET_NO":"999","REV_AT_EPOCH":"1934","BSTAR":"0.00001946300000","MEAN_MOTION_DOT":"0.00000004","MEAN_MOTION_DDOT":"0.0000000000000","SEMIMAJOR_AXIS":"6927.865","PERIOD":"95.644","APOAPSIS":"550.804","PERIAPSIS":"548.656","OBJECT_TYPE":"PAYLOAD","RCS_SIZE":"LARGE","COUNTRY_CODE":"US","LAUNCH_DATE":"2020-08-07","SITE":"AFETR","DECAY_DATE":null,"FILE":"2895815","GP_ID":"166731390","TLE_LINE0":"0 STARLINK-1532","TLE_LINE1":"1 46068U 20055AT  20336.82897328  .00000004  00000-0  19463-4 0  9998","TLE_LINE2":"2 46068  52.9928  93.2049 0001550  71.9016 288.2141 15.05579224 19346"}]